{
  "type": "FeatureCollection",
  "features": [
    {
      "type": "Feature",
      "properties": {
        "norad_id": 66712,
        "name": "FLOCK 4H-9",
        "group": "last-30-days",
        "lat": -49.22671107082129,
        "lon": 81.48475564181868,
        "alt_km": 525.1600518818977,
        "timestamp": "2025-12-27T05:29:37.916271+00:00",
        "meta_object_name": "FLOCK 4H-9",
        "meta_object_id": "2025-276AY",
        "meta_epoch": "2025-12-26T21:47:30.862176",
        "meta_mean_motion": 15.16209251,
        "meta_eccentricity": 0.00061764,
        "meta_inclination": 97.4414,
        "meta_ra_of_asc_node": 72.4527,
        "meta_arg_of_pericenter": 238.0304,
        "meta_mean_anomaly": 122.0329,
        "meta_ephemeris_type": 0,
        "meta_classification_type": "U",
        "meta_norad_cat_id": 66712,
        "meta_element_set_no": 999,
        "meta_rev_at_epoch": 427,
        "meta_bstar": -0.055234905,
        "meta_mean_motion_dot": -0.00983324,
        "meta_mean_motion_ddot": 0,
        "tle_line1": "1 66712U 25276AY  25360.90799609 -.00983324  00000+0 -55235-1 0  9990",
        "tle_line2": "2 66712  97.4414  72.4527 0006176 238.0304 122.0329 15.16209251  4274"
      },
      "geometry": {
        "type": "Point",
        "coordinates": [
          81.48475564181868,
          -49.22671107082129
        ]
      }
    },
    {
      "type": "Feature",
      "properties": {
        "norad_id": 66713,
        "name": "FLOCK 4H-10",
        "group": "last-30-days",
        "lat": -65.45961314971113,
        "lon": -123.90209052481562,
        "alt_km": 518.813968135988,
        "timestamp": "2025-12-27T05:29:37.916284+00:00",
        "meta_object_name": "FLOCK 4H-10",
        "meta_object_id": "2025-276AZ",
        "meta_epoch": "2025-12-26T18:54:51.267168",
        "meta_mean_motion": 15.17332391,
        "meta_eccentricity": 0.00034546,
        "meta_inclination": 97.4388,
        "meta_ra_of_asc_node": 72.2936,
        "meta_arg_of_pericenter": 234.7502,
        "meta_mean_anomaly": 125.3408,
        "meta_ephemeris_type": 0,
        "meta_classification_type": "U",
        "meta_norad_cat_id": 66713,
        "meta_element_set_no": 999,
        "meta_rev_at_epoch": 425,
        "meta_bstar": 0.00053691148,
        "meta_mean_motion_dot": 0.00010652,
        "meta_mean_motion_ddot": 0,
        "tle_line1": "1 66713U 25276AZ  25360.78809337  .00010652  00000+0  53691-3 0  9996",
        "tle_line2": "2 66713  97.4388  72.2936 0003454 234.7502 125.3408 15.17332391  4251"
      },
      "geometry": {
        "type": "Point",
        "coordinates": [
          -123.90209052481562,
          -65.45961314971113
        ]
      }
    },
    {
      "type": "Feature",
      "properties": {
        "norad_id": 66714,
        "name": "FLOCK 4H-11",
        "group": "last-30-days",
        "lat": -74.60257930724389,
        "lon": 101.08417106823231,
        "alt_km": 518.3250055156168,
        "timestamp": "2025-12-27T05:29:37.916294+00:00",
        "meta_object_name": "FLOCK 4H-11",
        "meta_object_id": "2025-276BA",
        "meta_epoch": "2025-12-26T21:55:10.583616",
        "meta_mean_motion": 15.17885511,
        "meta_eccentricity": 0.00020773,
        "meta_inclination": 97.4407,
        "meta_ra_of_asc_node": 72.4437,
        "meta_arg_of_pericenter": 253.0184,
        "meta_mean_anomaly": 107.0823,
        "meta_ephemeris_type": 0,
        "meta_classification_type": "U",
        "meta_norad_cat_id": 66714,
        "meta_element_set_no": 999,
        "meta_rev_at_epoch": 427,
        "meta_bstar": 0.00061564069,
        "meta_mean_motion_dot": 0.00012421,
        "meta_mean_motion_ddot": 0,
        "tle_line1": "1 66714U 25276BA  25360.91331694  .00012421  00000+0  61564-3 0  9992",
        "tle_line2": "2 66714  97.4407  72.4437 0002077 253.0184 107.0823 15.17885511  4279"
      },
      "geometry": {
        "type": "Point",
        "coordinates": [
          101.08417106823231,
          -74.60257930724389
        ]
      }
    },
    {
      "type": "Feature",
      "properties": {
        "norad_id": 66715,
        "name": "FLOCK 4H-12",
        "group": "last-30-days",
        "lat": -34.10215496656127,
        "lon": 77.82950046238321,
        "alt_km": 526.6617336251147,
        "timestamp": "2025-12-27T05:29:37.916306+00:00",
        "meta_object_name": "FLOCK 4H-12",
        "meta_object_id": "2025-276BB",
        "meta_epoch": "2025-12-26T18:33:47.369088",
        "meta_mean_motion": 15.17218053,
        "meta_eccentricity": 0.00065109,
        "meta_inclination": 97.4384,
        "meta_ra_of_asc_node": 72.3074,
        "meta_arg_of_pericenter": 170.7271,
        "meta_mean_anomaly": 189.4084,
        "meta_ephemeris_type": 0,
        "meta_classification_type": "U",
        "meta_norad_cat_id": 66715,
        "meta_element_set_no": 999,
        "meta_rev_at_epoch": 456,
        "meta_bstar": -0.036936468,
        "meta_mean_motion_dot": -0.00686834,
        "meta_mean_motion_ddot": 0,
        "tle_line1": "1 66715U 25276BB  25360.77346492 -.00686834  00000+0 -36936-1 0  9999",
        "tle_line2": "2 66715  97.4384  72.3074 0006510 170.7271 189.4084 15.17218053  4564"
      },
      "geometry": {
        "type": "Point",
        "coordinates": [
          77.82950046238321,
          -34.10215496656127
        ]
      }
    },
    {
      "type": "Feature",
      "properties": {
        "norad_id": 66716,
        "name": "FLOCK 4H-13",
        "group": "last-30-days",
        "lat": -18.43530441386395,
        "lon": 75.27307278564892,
        "alt_km": 517.5376109880781,
        "timestamp": "2025-12-27T05:29:37.916316+00:00",
        "meta_object_name": "FLOCK 4H-13",
        "meta_object_id": "2025-276BC",
        "meta_epoch": "2025-12-26T21:39:59.825664",
        "meta_mean_motion": 15.18224456,
        "meta_eccentricity": 0.00019737,
        "meta_inclination": 97.4414,
        "meta_ra_of_asc_node": 72.4552,
        "meta_arg_of_pericenter": 135.4545,
        "meta_mean_anomaly": 224.6848,
        "meta_ephemeris_type": 0,
        "meta_classification_type": "U",
        "meta_norad_cat_id": 66716,
        "meta_element_set_no": 999,
        "meta_rev_at_epoch": 427,
        "meta_bstar": 0.00031811707,
        "meta_mean_motion_dot": 6.444e-05,
        "meta_mean_motion_ddot": 0,
        "tle_line1": "1 66716U 25276BC  25360.90277576  .00006444  00000+0  31812-3 0  9992",
        "tle_line2": "2 66716  97.4414  72.4552 0001973 135.4545 224.6848 15.18224456  4274"
      },
      "geometry": {
        "type": "Point",
        "coordinates": [
          75.27307278564892,
          -18.43530441386395
        ]
      }
    },
    {
      "type": "Feature",
      "properties": {
        "norad_id": 66717,
        "name": "FLOCK 4H-14",
        "group": "last-30-days",
        "lat": -5.268796943779203,
        "lon": 73.46897721022205,
        "alt_km": 515.2458090957534,
        "timestamp": "2025-12-27T05:29:37.916326+00:00",
        "meta_object_name": "FLOCK 4H-14",
        "meta_object_id": "2025-276BD",
        "meta_epoch": "2025-12-26T20:01:39.074592",
        "meta_mean_motion": 15.18400823,
        "meta_eccentricity": 0.00017923,
        "meta_inclination": 97.4407,
        "meta_ra_of_asc_node": 72.3904,
        "meta_arg_of_pericenter": 129.2859,
        "meta_mean_anomaly": 230.8535,
        "meta_ephemeris_type": 0,
        "meta_classification_type": "U",
        "meta_norad_cat_id": 66717,
        "meta_element_set_no": 999,
        "meta_rev_at_epoch": 351,
        "meta_bstar": 0.00039020221,
        "meta_mean_motion_dot": 7.961e-05,
        "meta_mean_motion_ddot": 0,
        "tle_line1": "1 66717U 25276BD  25360.83448003  .00007961  00000+0  39020-3 0  9994",
        "tle_line2": "2 66717  97.4407  72.3904 0001792 129.2859 230.8535 15.18400823  3517"
      },
      "geometry": {
        "type": "Point",
        "coordinates": [
          73.46897721022205,
          -5.268796943779203
        ]
      }
    },
    {
      "type": "Feature",
      "properties": {
        "norad_id": 66718,
        "name": "FLOCK 4H-15",
        "group": "last-30-days",
        "lat": -53.235214680296735,
        "lon": -117.3443268148628,
        "alt_km": 519.3639054949472,
        "timestamp": "2025-12-27T05:29:37.916338+00:00",
        "meta_object_name": "FLOCK 4H-15",
        "meta_object_id": "2025-276BE",
        "meta_epoch": "2025-12-26T22:08:04.157376",
        "meta_mean_motion": 15.1715319,
        "meta_eccentricity": 0.0003135,
        "meta_inclination": 97.4416,
        "meta_ra_of_asc_node": 72.4299,
        "meta_arg_of_pericenter": 248.0933,
        "meta_mean_anomaly": 111.9968,
        "meta_ephemeris_type": 0,
        "meta_classification_type": "U",
        "meta_norad_cat_id": 66718,
        "meta_element_set_no": 999,
        "meta_rev_at_epoch": 427,
        "meta_bstar": 0.00040352039,
        "meta_mean_motion_dot": 7.945e-05,
        "meta_mean_motion_ddot": 0,
        "tle_line1": "1 66718U 25276BE  25360.92227034  .00007945  00000+0  40352-3 0  9996",
        "tle_line2": "2 66718  97.4416  72.4299 0003135 248.0933 111.9968 15.17153190  4276"
      },
      "geometry": {
        "type": "Point",
        "coordinates": [
          -117.3443268148628,
          -53.235214680296735
        ]
      }
    }
  ]
}